ONEWEB-0387             
1 49313U 21090AL  23059.31085106 -.00000003  00000+0 -38364-4 0  9997
2 49313  87.9356 154.2657 0001764 107.7788 252.3537 13.20775525 70771
ONEWEB-0387             
1 49313U 21090AL  23059.31085106 -.00000003  00000+0 -38364-4 0  9997
2 49313  87.9356 154.2657 0001764 107.7788 252.3537 13.20775525 72087
ONEWEB-0387             
1 49313U 21090AL  23059.76539060  .00000062  00000+0  12142-3 0  9997
2 49313  87.9357 154.1758 0001780 108.3218 251.8109 13.20775481 70833
ONEWEB-0387             
1 49313U 21090AL  23060.29568636  .00000045  00000+0  79471-4 0  9998
2 49313  87.9355 154.0709 0001805 108.5957 251.5373 13.20776025 70909
ONEWEB-0387             
1 49313U 21090AL  23060.97749574  .00000105  00000+0  22697-3 0  9999
2 49313  87.9354 153.9362 0001822 108.5521 251.5810 13.20775674 72308
ONEWEB-0387             
1 49313U 21090AL  23061.81081797  .00000081  00000+0  16717-3 0  9998
2 49313  87.9346 153.7707 0001815 108.0830 252.0501 13.20775634 71106
ONEWEB-0387             
1 49313U 21090AL  23062.26535653  .00000143  00000+0  31863-3 0  9991
2 49313  87.9344 153.6807 0001831 107.8308 252.3025 13.20776317 71168
ONEWEB-0387             
1 49313U 21090AL  23062.26535653  .00000143  00000+0  31863-3 0  9991
2 49313  87.9344 153.6807 0001831 107.8308 252.3025 13.20776317 72473
